{
  "norad_id": 68090,
  "name": "STARLINK-36320",
  "history": [
    {
      "epoch": "2026-03-27T03:41:33.349344",
      "apogee_km": 345.2584332968463,
      "perigee_km": 341.54384246032987,
      "latitude_deg": -2.0934062480083355,
      "longitude_deg": -172.2296118400991,
      "semi_major_axis_km": 6721.538137878588,
      "eccentricity": 0.00027632,
      "inclination_deg": 53.1593,
      "raan_deg": 107.3571,
      "arg_perigee_deg": 139.4736,
      "mean_anomaly_deg": 220.6491,
      "mean_motion_rev_day": 15.75432358
    }
  ]
}